[
    {
        "Altitude(m)": 703251.1658505972,
        "Argument of Periapsis(deg)": 0.0,
        "Eccentricity": 0.0,
        "Inclination(deg)": 45.0,
        "Latitude(deg)": 22.5459029686716,
        "Longitude(deg)": 39.419072740281386,
        "Mean Anomaly(deg)": 32.727299999999985,
        "RAAN(deg)": 114.99999999999999,
        "Satellite Name": "Constellation 1 508",
        "Satellite Number": 508,
        "Semi-Major Axis(m)": 7083131.272910544,
        "Time(s)": 0
    },
    {
        "Altitude(m)": 703255.2936714768,
        "Argument of Periapsis(deg)": 5.994800624540561e-05,
        "Eccentricity": 0.0,
        "Inclination(deg)": 45.0,
        "Latitude(deg)": 22.585214217136517,
        "Longitude(deg)": 39.46519231557283,
        "Mean Anomaly(deg)": 32.7880011402499,
        "RAAN(deg)": 114.99994341083443,
        "Satellite Name": "Constellation 1 508",
        "Satellite Number": 508,
        "Semi-Major Axis(m)": 7083131.272910544,
        "Time(s)": 1
    },
    {
        "Altitude(m)": 703259.4332630193,
        "Argument of Periapsis(deg)": 0.00011989601249081122,
        "Eccentricity": 0.0,
        "Inclination(deg)": 45.0,
        "Latitude(deg)": 22.624509577628775,
        "Longitude(deg)": 39.51134039592322,
        "Mean Anomaly(deg)": 32.84870228049981,
        "RAAN(deg)": 114.99988682166884,
        "Satellite Name": "Constellation 1 508",
        "Satellite Number": 508,
        "Semi-Major Axis(m)": 7083131.272910544,
        "Time(s)": 2
    },
    {
        "Altitude(m)": 703263.5845905454,
        "Argument of Periapsis(deg)": 0.00017984401873621686,
        "Eccentricity": 0.0,
        "Inclination(deg)": 45.0,
        "Latitude(deg)": 22.66378901074383,
        "Longitude(deg)": 39.55751704111839,
        "Mean Anomaly(deg)": 32.9094034207497,
        "RAAN(deg)": 114.99983023250329,
        "Satellite Name": "Constellation 1 508",
        "Satellite Number": 508,
        "Semi-Major Axis(m)": 7083131.272910544,
        "Time(s)": 3
    },
    {
        "Altitude(m)": 703267.7476193252,
        "Argument of Periapsis(deg)": 0.00023979202498162244,
        "Eccentricity": 0.0,
        "Inclination(deg)": 45.0,
        "Latitude(deg)": 22.703052477021075,
        "Longitude(deg)": 39.6037223109641,
        "Mean Anomaly(deg)": 32.97010456099958,
        "RAAN(deg)": 114.9997736433377,
        "Satellite Name": "Constellation 1 508",
        "Satellite Number": 508,
        "Semi-Major Axis(m)": 7083131.272910544,
        "Time(s)": 4
    },
    {
        "Altitude(m)": 703271.9223145954,
        "Argument of Periapsis(deg)": 0.00029974003122702807,
        "Eccentricity": 0.0,
        "Inclination(deg)": 45.0,
        "Latitude(deg)": 22.74229993694334,
        "Longitude(deg)": 39.649956265285866,
        "Mean Anomaly(deg)": 33.03080570124949,
        "RAAN(deg)": 114.99971705417214,
        "Satellite Name": "Constellation 1 508",
        "Satellite Number": 508,
        "Semi-Major Axis(m)": 7083131.272910544,
        "Time(s)": 5
    },
    {
        "Altitude(m)": 703276.1086415551,
        "Argument of Periapsis(deg)": 0.00035968803747243373,
        "Eccentricity": 0.0,
        "Inclination(deg)": 45.0,
        "Latitude(deg)": 22.781531350937023,
        "Longitude(deg)": 39.69621896392859,
        "Mean Anomaly(deg)": 33.09150684149938,
        "RAAN(deg)": 114.99966046500658,
        "Satellite Name": "Constellation 1 508",
        "Satellite Number": 508,
        "Semi-Major Axis(m)": 7083131.272910544,
        "Time(s)": 6
    },
    {
        "Altitude(m)": 703280.306565349,
        "Argument of Periapsis(deg)": 0.00041963604371783933,
        "Eccentricity": 0.0,
        "Inclination(deg)": 45.0,
        "Latitude(deg)": 22.82074667937165,
        "Longitude(deg)": 39.74251029865947,
        "Mean Anomaly(deg)": 33.15220798174929,
        "RAAN(deg)": 114.99960387584099,
        "Satellite Name": "Constellation 1 508",
        "Satellite Number": 508,
        "Semi-Major Axis(m)": 7083131.272910544,
        "Time(s)": 7
    },
    {
        "Altitude(m)": 703284.5160510911,
        "Argument of Periapsis(deg)": 0.0004795840499632449,
        "Eccentricity": 0.0,
        "Inclination(deg)": 45.0,
        "Latitude(deg)": 22.859945882560766,
        "Longitude(deg)": 39.788830665556134,
        "Mean Anomaly(deg)": 33.21290912199918,
        "RAAN(deg)": 114.99954728667544,
        "Satellite Name": "Constellation 1 508",
        "Satellite Number": 508,
        "Semi-Major Axis(m)": 7083131.272910544,
        "Time(s)": 8
    },
    {
        "Altitude(m)": 703288.7370638552,
        "Argument of Periapsis(deg)": 0.0005395320562086505,
        "Eccentricity": 0.0,
        "Inclination(deg)": 45.0,
        "Latitude(deg)": 22.899128920760376,
        "Longitude(deg)": 39.835179956423964,
        "Mean Anomaly(deg)": 33.27361026224909,
        "RAAN(deg)": 114.99949069750988,
        "Satellite Name": "Constellation 1 508",
        "Satellite Number": 508,
        "Semi-Major Axis(m)": 7083131.272910544,
        "Time(s)": 9
    },
    {
        "Altitude(m)": 703292.969568671,
        "Argument of Periapsis(deg)": 0.0005994800624540561,
        "Eccentricity": 0.0,
        "Inclination(deg)": 45.0,
        "Latitude(deg)": 22.938295754169697,
        "Longitude(deg)": 39.88155823118409,
        "Mean Anomaly(deg)": 33.334311402499004,
        "RAAN(deg)": 114.9994341083443,
        "Satellite Name": "Constellation 1 508",
        "Satellite Number": 508,
        "Semi-Major Axis(m)": 7083131.272910544,
        "Time(s)": 10
    },
    {
        "Altitude(m)": 703297.2135305201,
        "Argument of Periapsis(deg)": 0.0006594280686994618,
        "Eccentricity": 0.0,
        "Inclination(deg)": 45.0,
        "Latitude(deg)": 22.977446342930946,
        "Longitude(deg)": 39.92796554977632,
        "Mean Anomaly(deg)": 33.39501254274889,
        "RAAN(deg)": 114.99937751917874,
        "Satellite Name": "Constellation 1 508",
        "Satellite Number": 508,
        "Semi-Major Axis(m)": 7083131.272910544,
        "Time(s)": 11
    },
    {
        "Altitude(m)": 703301.4689143605,
        "Argument of Periapsis(deg)": 0.0007193760749448675,
        "Eccentricity": 0.0,
        "Inclination(deg)": 45.0,
        "Latitude(deg)": 23.016580647129146,
        "Longitude(deg)": 39.974401972158844,
        "Mean Anomaly(deg)": 33.4557136829988,
        "RAAN(deg)": 114.99932093001316,
        "Satellite Name": "Constellation 1 508",
        "Satellite Number": 508,
        "Semi-Major Axis(m)": 7083131.272910544,
        "Time(s)": 12
    },
    {
        "Altitude(m)": 703305.7356850925,
        "Argument of Periapsis(deg)": 0.000779324081190273,
        "Eccentricity": 0.0,
        "Inclination(deg)": 45.0,
        "Latitude(deg)": 23.055698626792033,
        "Longitude(deg)": 40.02086755830807,
        "Mean Anomaly(deg)": 33.51641482324869,
        "RAAN(deg)": 114.99926434084759,
        "Satellite Name": "Constellation 1 508",
        "Satellite Number": 508,
        "Semi-Major Axis(m)": 7083131.272910544,
        "Time(s)": 13
    },
    {
        "Altitude(m)": 703310.0138075942,
        "Argument of Periapsis(deg)": 0.0008392720874356787,
        "Eccentricity": 0.0,
        "Inclination(deg)": 45.0,
        "Latitude(deg)": 23.094800241889946,
        "Longitude(deg)": 40.06736236821845,
        "Mean Anomaly(deg)": 33.5771159634986,
        "RAAN(deg)": 114.99920775168202,
        "Satellite Name": "Constellation 1 508",
        "Satellite Number": 508,
        "Semi-Major Axis(m)": 7083131.272910544,
        "Time(s)": 14
    },
    {
        "Altitude(m)": 703314.3032466881,
        "Argument of Periapsis(deg)": 0.0008992200936810842,
        "Eccentricity": 0.0,
        "Inclination(deg)": 45.0,
        "Latitude(deg)": 23.13388545233549,
        "Longitude(deg)": 40.11388629380513,
        "Mean Anomaly(deg)": 33.63781710374849,
        "RAAN(deg)": 114.99915116251645,
        "Satellite Name": "Constellation 1 508",
        "Satellite Number": 508,
        "Semi-Major Axis(m)": 7083131.272910544,
        "Time(s)": 15
    },
    {
        "Altitude(m)": 703318.603967169,
        "Argument of Periapsis(deg)": 0.0009591680999264898,
        "Eccentricity": 0.0,
        "Inclination(deg)": 45.0,
        "Latitude(deg)": 23.172954217984383,
        "Longitude(deg)": 40.16043973129233,
        "Mean Anomaly(deg)": 33.6985182439984,
        "RAAN(deg)": 114.9990945733509,
        "Satellite Name": "Constellation 1 508",
        "Satellite Number": 508,
        "Semi-Major Axis(m)": 7083131.272910544,
        "Time(s)": 16
    },
    {
        "Altitude(m)": 703322.9159337818,
        "Argument of Periapsis(deg)": 0.0010191161061718953,
        "Eccentricity": 0.0,
        "Inclination(deg)": 45.0,
        "Latitude(deg)": 23.212006498633833,
        "Longitude(deg)": 40.20702257263024,
        "Mean Anomaly(deg)": 33.75921938424829,
        "RAAN(deg)": 114.99903798418532,
        "Satellite Name": "Constellation 1 508",
        "Satellite Number": 508,
        "Semi-Major Axis(m)": 7083131.272910544,
        "Time(s)": 17
    },
    {
        "Altitude(m)": 703327.2391112356,
        "Argument of Periapsis(deg)": 0.001079064112417301,
        "Eccentricity": 0.0,
        "Inclination(deg)": 45.0,
        "Latitude(deg)": 23.2510422540235,
        "Longitude(deg)": 40.2536348778834,
        "Mean Anomaly(deg)": 33.81992052449817,
        "RAAN(deg)": 114.99898139501975,
        "Satellite Name": "Constellation 1 508",
        "Satellite Number": 508,
        "Semi-Major Axis(m)": 7083131.272910544,
        "Time(s)": 18
    }
]